0 CZ-4 DEB
1 26273U 99057FK  13281.14688899  .00000815  00000-0  13688-3 0  1656
2 26273 098.6592 019.9454 0071961 122.4975 011.3615 14.71025980726275
0 CZ-4 DEB
1 26273U 99057FK  13283.51411233  .00000846  00000-0  14171-3 0  1668
2 26273 098.6595 022.4604 0071966 115.1824 307.3670 14.71035163726623
0 CZ-4 DEB
1 26273U 99057FK  13285.84323890  .00000855  00000-0  14319-3 0  1672
2 26273 098.6600 024.9352 0072036 107.9760 041.6953 14.71038930726968
0 CZ-4 DEB
1 26273U 99057FK  13288.20782468  .00001425  00000-0  23227-3 0  1688
2 26273 098.6601 027.4478 0071984 100.6655 323.8418 14.71046617727312
0 CZ-4 DEB
1 26273U 99057FK  13290.52025729  .00001123  00000-0  18494-3 0  1692
2 26273 098.6599 029.9053 0071930 093.5323 329.8451 14.71052638727657
0 CZ-4 DEB
1 26273U 99057FK  13292.84886517  .00001230  00000-0  20170-3 0  1704
2 26273 098.6596 032.3799 0071878 086.3280 061.5833 14.71057636727996
0 CZ-4 DEB
1 26273U 99057FK  13294.94661844  .00001246  00000-0  20426-3 0  1713
2 26273 098.6595 034.6091 0071855 079.8717 010.7781 14.71062882728305
